NORAD_CAT_ID,OBJECT_NAME,OBJECT_TYPE,EPOCH,MEAN_MOTION,ECCENTRICITY,INCLINATION,RA_OF_ASC_NODE,ARG_OF_PERICENTER,MEAN_ANOMALY,BSTAR,MEAN_MOTION_DOT,MEAN_MOTION_DDOT,TLE_LINE0,TLE_LINE1,TLE_LINE2,SEMIMAJOR_AXIS,PERIOD,APOGEE,PERIGEE,DECAYED
56495.0,STARLINK-5529,PAYLOAD,2023-09-14 03:02:35,15.69918537,0.0003326,69.9991,249.895,269.9169,90.1646,1.2409e-05,1.279e-05,0.0,0 STARLINK-5529,1 56495U 23064AZ  23257.12680171  .00001279  00000-0  12409-4 0  9998,2 56495  69.9991 249.8950 0003326 269.9169  90.1646 15.69918537 20212,6737.267,91.725,361.373,356.891,0.0
56495.0,STARLINK-5529,PAYLOAD,2023-09-14 09:09:35,15.69927991,0.0003176,69.9994,249.1791,270.4055,89.6777,2.3026e-05,2.557e-05,0.0,0 STARLINK-5529,1 56495U 23064AZ  23257.38166169  .00002557  00000-0  23026-4 0  9999,2 56495  69.9994 249.1791 0003176 270.4055  89.6777 15.69927991 20251,6737.24,91.724,361.245,356.965,0.0
56495.0,STARLINK-5529,PAYLOAD,2023-09-14 16:49:39,15.68755794,0.0006752,69.9993,248.2865,217.4309,142.6417,-0.0013592,-0.0015333,0.0,0 STARLINK-5529,1 56495U 23064AZ  23257.70115258 -.00153330  00000-0 -13592-2 0  9991,2 56495  69.9993 248.2865 0006752 217.4309 142.6417 15.68755794 20304,6740.596,91.792,367.012,357.909,0.0
56495.0,STARLINK-5529,PAYLOAD,2023-09-15 04:00:00,15.69955916,0.0003507,70.0009,246.9718,270.6526,204.7418,-0.00042974,-0.00051638,0.0,0 STARLINK-5529,1 56495U 23064AZ  23258.16667824 -.00051638  00000-0 -42974-3 0  9998,2 56495  70.0009 246.9718 0003507 270.6526 204.7418 15.69955916 20382,6737.16,91.722,361.388,356.662,0.0
56495.0,STARLINK-5529,PAYLOAD,2023-09-15 08:06:13,15.69608978,0.0001793,69.9997,246.4929,277.1434,82.9558,-0.00038053,-0.00045121,0.0,0 STARLINK-5529,1 56495U 23064AZ  23258.33766142 -.00045121  00000-0 -38053-3 0  9993,2 56495  69.9997 246.4929 0001793 277.1434  82.9558 15.69608978 20406,6738.153,91.743,361.226,358.81,0.0
56495.0,STARLINK-5529,PAYLOAD,2023-09-15 09:37:37,15.69936127,0.0003022,69.9995,246.313,270.1789,89.906,-3.1441e-06,-5.91e-06,0.0,0 STARLINK-5529,1 56495U 23064AZ  23258.40112440 -.00000591  00000-0 -31441-5 0  9995,2 56495  69.9995 246.3130 0003022 270.1789  89.9060 15.69936127 20067,6737.217,91.723,361.118,357.046,0.0
56495.0,STARLINK-5529,PAYLOAD,2023-09-15 23:23:24,15.69921572,0.0003127,69.9996,244.7008,272.2255,87.8583,3.7168e-06,2.34e-06,0.0,0 STARLINK-5529,1 56495U 23064AZ  23258.97458528  .00000234  00000-0  37168-5 0  9991,2 56495  69.9996 244.7008 0003127 272.2255  87.8583 15.69921572 20505,6737.258,91.724,361.23,357.017,0.0
56495.0,STARLINK-5529,PAYLOAD,2023-09-16 08:33:34,15.70212013,0.0004211,69.9995,243.6248,278.6874,81.3845,0.00032996,0.00040136,0.0,0 STARLINK-5529,1 56495U 23064AZ  23259.35665286  .00040136  00000-0  32996-3 0  9992,2 56495  69.9995 243.6248 0004211 278.6874  81.3845 15.70212013 20561,6736.428,91.707,361.129,355.456,0.0
56495.0,STARLINK-5529,PAYLOAD,2023-09-17 09:01:45,15.70232896,0.0005165,69.9987,240.7581,256.2161,103.846,-0.00058273,-0.00070628,0.0,0 STARLINK-5529,1 56495U 23064AZ  23260.37622213 -.00070628  00000-0 -58273-3 0  9996,2 56495  69.9987 240.7581 0005165 256.2161 103.8460 15.70232896 20373,6736.368,91.706,361.712,354.754,0.0
56495.0,STARLINK-5529,PAYLOAD,2023-09-18 06:00:00,15.69911891,0.0003391,70.0019,238.3028,271.2841,344.9827,0.00018001,0.00021476,0.0,0 STARLINK-5529,1 56495U 23064AZ  23261.25001157  .00021476  00000-0  18001-3 0  9992,2 56495  70.0019 238.3028 0003391 271.2841 344.9827 15.69911891 20868,6737.286,91.725,361.436,356.866,0.0
56495.0,STARLINK-5529,PAYLOAD,2023-09-18 14:00:01,15.69959027,0.0003366,70.0017,237.3656,271.2124,68.3839,-0.00070348,-0.00084081,0.0,0 STARLINK-5529,1 56495U 23064AZ  23261.58334491 -.00084081  00000-0 -70348-3 0  9993,2 56495  70.0017 237.3656 0003366 271.2124  68.3839 15.69959027  6012,6737.151,91.722,361.284,356.748,0.0
56495.0,STARLINK-5529,PAYLOAD,2023-09-18 22:00:00,15.69900055,0.000334,70.0019,236.4286,266.5153,156.4266,0.00040375,0.00048568,0.0,0 STARLINK-5529,1 56495U 23064AZ  23261.91667824  .00048568  00000-0  40375-3 0  9994,2 56495  70.0019 236.4286 0003340 266.5153 156.4266 15.69900055 20964,6737.32,91.726,361.435,356.935,0.0
56495.0,STARLINK-5529,PAYLOAD,2023-09-19 08:26:15,15.69934091,0.0003142,69.9968,235.2067,264.7761,95.3076,1.0884e-05,1.097e-05,0.0,0 STARLINK-5529,1 56495U 23064AZ  23262.35156340  .00001097  00000-0  10884-4 0  9998,2 56495  69.9968 235.2067 0003142 264.7761  95.3076 15.69934091 21039,6737.223,91.724,361.204,356.971,0.0
56495.0,STARLINK-5529,PAYLOAD,2023-09-20 01:15:32,15.69916244,0.000298,70.0017,233.2367,275.1783,84.9072,-4.3834e-06,-7.39e-06,0.0,0 STARLINK-5529,1 56495U 23064AZ  23263.05246499 -.00000739  00000-0 -43834-5 0  9997,2 56495  70.0017 233.2367 0002980 275.1783  84.9072 15.69916244 21149,6737.274,91.725,361.146,357.131,0.0
56495.0,STARLINK-5529,PAYLOAD,2023-09-20 08:54:19,15.69907804,0.0003348,69.9979,232.3409,260.989,99.0927,-1.4564e-05,-1.962e-05,0.0,0 STARLINK-5529,1 56495U 23064AZ  23263.37105341 -.00001962  00000-0 -14564-4 0  9998,2 56495  69.9979 232.3409 0003348 260.9890  99.0927 15.69907804 20844,6737.298,91.725,361.418,356.907,0.0
56495.0,STARLINK-5529,PAYLOAD,2023-09-20 15:01:19,15.69913991,0.0003334,69.9979,231.6245,260.5823,99.4995,-7.0458e-06,-1.059e-05,0.0,0 STARLINK-5529,1 56495U 23064AZ  23263.62591653 -.00001059  00000-0 -70458-5 0  9993,2 56495  69.9979 231.6245 0003334 260.5823  99.4995 15.69913991 20888,6737.28,91.725,361.391,356.899,0.0
56495.0,STARLINK-5529,PAYLOAD,2023-09-21 00:11:48,15.69937319,0.0002907,70.0015,230.5481,265.7765,94.3099,1.2156e-05,1.25e-05,0.0,0 STARLINK-5529,1 56495U 23064AZ  23264.00819930  .00001250  00000-0  12156-4 0  9998,2 56495  70.0015 230.5481 0002907 265.7765  94.3099 15.69937319 21294,6737.213,91.723,361.037,357.12,0.0
56495.0,STARLINK-5529,PAYLOAD,2023-09-21 07:50:34,15.69922371,0.0002944,69.9982,229.6533,269.3303,90.7555,4.4367e-06,3.21e-06,0.0,0 STARLINK-5529,1 56495U 23064AZ  23264.32679314  .00000321  00000-0  44367-5 0  9991,2 56495  69.9982 229.6533 0002944 269.3303  90.7555 15.69922371 21345,6737.256,91.724,361.105,357.138,0.0
56495.0,STARLINK-5529,PAYLOAD,2023-09-21 15:29:20,15.69925093,0.0003115,69.9985,228.7577,267.7378,92.3461,8.24e-06,7.78e-06,0.0,0 STARLINK-5529,1 56495U 23064AZ  23264.64537407  .00000778  00000-0  82400-5 0  9998,2 56495  69.9985 228.7577 0003115 267.7378  92.3461 15.69925093 21046,6737.248,91.724,361.212,357.015,0.0
56495.0,STARLINK-5529,PAYLOAD,2023-09-22 06:46:51,15.69928692,0.0002675,70.0004,226.9673,266.0209,94.0681,1.8544e-05,2.018e-05,0.0,0 STARLINK-5529,1 56495U 23064AZ  23265.28254109  .00002018  00000-0  18544-4 0  9990,2 56495  70.0004 226.9673 0002675 266.0209  94.0681 15.69928692 21145,6737.238,91.724,360.905,357.301,0.0
56495.0,STARLINK-5529,PAYLOAD,2023-09-22 22:04:22,15.69933368,0.0002566,70.001,225.1769,254.9259,105.1653,5.0921e-07,-1.51e-06,0.0,0 STARLINK-5529,1 56495U 23064AZ  23265.91970768 -.00000151  00000-0  50921-6 0  9990,2 56495  70.0010 225.1769 0002566 254.9259 105.1653 15.69933368 21249,6737.225,91.724,360.818,357.361,0.0
56495.0,STARLINK-5529,PAYLOAD,2023-09-22 23:36:07,15.69934169,0.0002604,70.0015,224.9979,249.4252,110.6664,5.1663e-07,-1.5e-06,0.0,0 STARLINK-5529,1 56495U 23064AZ  23265.98342317 -.00000150  00000-0  51663-6 0  9993,2 56495  70.0015 224.9979 0002604 249.4252 110.6664 15.69934169 21602,6737.222,91.724,360.842,357.333,0.0
56495.0,STARLINK-5529,PAYLOAD,2023-09-23 07:14:54,15.69915015,0.0002822,70.0007,224.1015,264.5723,95.5151,-8.8285e-06,-1.273e-05,0.0,0 STARLINK-5529,1 56495U 23064AZ  23266.30202016 -.00001273  00000-0 -88285-5 0  9998,2 56495  70.0007 224.1015 0002822 264.5723  95.5151 15.69915015 21655,6737.277,91.725,361.043,357.241,0.0
56495.0,STARLINK-5529,PAYLOAD,2023-09-24 00:04:09,15.69926896,0.0003188,70.0005,222.1304,264.8465,95.2367,1.6078e-05,1.721e-05,0.0,0 STARLINK-5529,1 56495U 23064AZ  23267.00289245  .00001721  00000-0  16078-4 0  9991,2 56495  70.0005 222.1304 0003188 264.8465  95.2367 15.69926896 21761,6737.243,91.724,361.256,356.96,0.0
56495.0,STARLINK-5529,PAYLOAD,2023-09-24 06:11:10,15.69926632,0.0003192,70.0003,221.4133,264.9891,95.0941,1.5222e-05,1.618e-05,0.0,0 STARLINK-5529,1 56495U 23064AZ  23267.25776001  .00001618  00000-0  15222-4 0  9994,2 56495  70.0003 221.4133 0003192 264.9891  95.0941 15.69926632 21450,6737.244,91.724,361.259,356.958,0.0
56495.0,STARLINK-5529,PAYLOAD,2023-09-24 21:28:41,15.6992909,0.0003198,70.0012,219.6209,265.2599,94.8232,7.5092e-07,-1.22e-06,0.0,0 STARLINK-5529,1 56495U 23064AZ  23267.89492393 -.00000122  00000-0  75092-6 0  9996,2 56495  70.0012 219.6209 0003198 265.2599  94.8232 15.69929090 21550,6737.237,91.724,361.256,356.947,0.0
56495.0,STARLINK-5529,PAYLOAD,2023-09-25 00:32:11,15.69929352,0.0003377,70.0011,219.2648,267.0444,93.0366,1.0449e-05,1.044e-05,0.0,0 STARLINK-5529,1 56495U 23064AZ  23268.02235666  .00001044  00000-0  10449-4 0  9996,2 56495  70.0011 219.2648 0003377 267.0444  93.0366 15.69929352 21921,6737.236,91.724,361.376,356.826,0.0
56495.0,STARLINK-5529,PAYLOAD,2023-09-25 08:10:57,15.6992162,0.0003242,70.0013,218.3699,269.6365,90.446,-7.9017e-07,-3.08e-06,0.0,0 STARLINK-5529,1 56495U 23064AZ  23268.34094646 -.00000308  00000-0 -79017-6 0  9994,2 56495  70.0013 218.3699 0003242 269.6365  90.4460 15.69921620 21971,6737.258,91.724,361.307,356.939,0.0
56495.0,STARLINK-5529,PAYLOAD,2023-09-25 21:56:44,15.69908354,0.0003558,70.001,216.7578,269.8556,90.2232,-4.2362e-05,-5.3e-05,0.0,0 STARLINK-5529,1 56495U 23064AZ  23268.91440180 -.00005300  00000-0 -42362-4 0  9993,2 56495  70.0010 216.7578 0003558 269.8556  90.2232 15.69908354 21716,6737.296,91.725,361.558,356.764,0.0
56495.0,STARLINK-5529,PAYLOAD,2023-09-26 05:35:29,15.69917696,0.0003176,70.002,215.8607,255.0308,105.0536,-5.3737e-06,-8.58e-06,0.0,0 STARLINK-5529,1 56495U 23064AZ  23269.23298213 -.00000858  00000-0 -53737-5 0  9999,2 56495  70.0020 215.8607 0003176 255.0308 105.0536 15.69917696 22114,6737.269,91.725,361.274,356.995,0.0
